STARLINK-35885          
1 66890U 25283N   26003.50002314 -.02073809  00000+0 -51759-1 0  9993
2 66890  53.1595 327.0884 0001343  92.0323 193.1779 15.43250963  5922
STARLINK-35855          
1 66891U 25283P   26003.50002314 -.02077074  00000+0 -50013-1 0  9994
2 66891  53.1593 327.0754 0001165  99.3263 192.4750 15.44308957  5921
STARLINK-35883          
1 66892U 25283Q   26003.50002314 -.02085515  00000+0 -48490-1 0  9990
2 66892  53.1597 327.0633 0001284  97.6161 199.7837 15.45338783  5862
STARLINK-36033          
1 66893U 25283R   26003.50002314  .00039863  00000+0  13531-2 0  9991
2 66893  53.1589 327.3432 0001134 109.1827  46.9873 15.30145401  5923
STARLINK-35718          
1 66894U 25283S   26003.38057791 -.00407800  00000+0 -79503-2 0  9990
2 66894  53.1607 327.6156 0001046 121.4481 238.6630 15.48450877  5843
STARLINK-35971          
1 66895U 25283T   26003.50002314 -.01859251  00000+0 -63488-1 0  9992
2 66895  53.1598 327.2360 0001518  85.2631 125.0311 15.33326672  5927
STARLINK-35791          
1 66896U 25283U   26003.31556591  .00129902  00000+0  23007-2 0  9997
2 66896  53.1597 327.9203 0001410  73.7079 286.4085 15.49362382  5834
STARLINK-36079          
1 66897U 25283V   26003.50002314 -.02379084  00000+0 -81133-1 0  9993
2 66897  53.1587 327.2299 0001569 107.1720 105.8034 15.33683889  5921
STARLINK-36065          
1 66898U 25283W   26003.50002314 -.02074510  00000+0 -64251-1 0  9992
2 66898  53.1591 327.1627 0001448  89.1069 157.4704 15.36183702  5921
STARLINK-36064          
1 66899U 25283X   26003.50002314 -.02042964  00000+0 -63080-1 0  9990
2 66899  53.1589 327.1462 0001439  91.3383 163.4729 15.36804913  5861
STARLINK-36074          
1 66900U 25283Y   26003.50002314 -.02045680  00000+0 -63118-1 0  9993
2 66900  53.1593 327.1416 0001476  87.1126 169.8864 15.36832235  5922
STARLINK-36043          
1 66901U 25283Z   26003.50002314 -.02069850  00000+0 -57854-1 0  9999
2 66901  53.1590 327.0844 0001216  92.5877 192.8711 15.39880759  5923
