CCSDS_OMM_VERS = 2.0
CREATION_DATE  = 
ORIGINATOR     = 

OBJECT_NAME    = STARLINK-35885
OBJECT_ID      = 2025-283N
CENTER_NAME    = EARTH
REF_FRAME      = TEME
TIME_SYSTEM    = UTC
MEAN_ELEMENT_THEORY = SGP/SGP4

EPOCH          = 2026-01-03T12:00:01.999296
MEAN_MOTION    = 15.43250963
ECCENTRICITY   = .0001343
INCLINATION    = 53.1595
RA_OF_ASC_NODE = 327.0884
ARG_OF_PERICENTER = 92.0323
MEAN_ANOMALY   = 193.1779

EPHEMERIS_TYPE = 0
CLASSIFICATION_TYPE = U
NORAD_CAT_ID   = 66890
ELEMENT_SET_NO = 999
REV_AT_EPOCH   = 592
BSTAR          = -.51759E-1
MEAN_MOTION_DOT = -.2073809E-1
MEAN_MOTION_DDOT = 0

CCSDS_OMM_VERS = 2.0
CREATION_DATE  = 
ORIGINATOR     = 

OBJECT_NAME    = STARLINK-35855
OBJECT_ID      = 2025-283P
CENTER_NAME    = EARTH
REF_FRAME      = TEME
TIME_SYSTEM    = UTC
MEAN_ELEMENT_THEORY = SGP/SGP4

EPOCH          = 2026-01-03T12:00:01.999296
MEAN_MOTION    = 15.44308957
ECCENTRICITY   = .0001165
INCLINATION    = 53.1593
RA_OF_ASC_NODE = 327.0754
ARG_OF_PERICENTER = 99.3263
MEAN_ANOMALY   = 192.4750

EPHEMERIS_TYPE = 0
CLASSIFICATION_TYPE = U
NORAD_CAT_ID   = 66891
ELEMENT_SET_NO = 999
REV_AT_EPOCH   = 592
BSTAR          = -.50013E-1
MEAN_MOTION_DOT = -.2077074E-1
MEAN_MOTION_DDOT = 0

CCSDS_OMM_VERS = 2.0
CREATION_DATE  = 
ORIGINATOR     = 

OBJECT_NAME    = STARLINK-35883
OBJECT_ID      = 2025-283Q
CENTER_NAME    = EARTH
REF_FRAME      = TEME
TIME_SYSTEM    = UTC
MEAN_ELEMENT_THEORY = SGP/SGP4

EPOCH          = 2026-01-03T12:00:01.999296
MEAN_MOTION    = 15.45338783
ECCENTRICITY   = .0001284
INCLINATION    = 53.1597
RA_OF_ASC_NODE = 327.0633
ARG_OF_PERICENTER = 97.6161
MEAN_ANOMALY   = 199.7837

EPHEMERIS_TYPE = 0
CLASSIFICATION_TYPE = U
NORAD_CAT_ID   = 66892
ELEMENT_SET_NO = 999
REV_AT_EPOCH   = 586
BSTAR          = -.4849E-1
MEAN_MOTION_DOT = -.2085515E-1
MEAN_MOTION_DDOT = 0

CCSDS_OMM_VERS = 2.0
CREATION_DATE  = 
ORIGINATOR     = 

OBJECT_NAME    = STARLINK-36033
OBJECT_ID      = 2025-283R
CENTER_NAME    = EARTH
REF_FRAME      = TEME
TIME_SYSTEM    = UTC
MEAN_ELEMENT_THEORY = SGP/SGP4

EPOCH          = 2026-01-03T12:00:01.999296
MEAN_MOTION    = 15.30145401
ECCENTRICITY   = .0001134
INCLINATION    = 53.1589
RA_OF_ASC_NODE = 327.3432
ARG_OF_PERICENTER = 109.1827
MEAN_ANOMALY   = 46.9873

EPHEMERIS_TYPE = 0
CLASSIFICATION_TYPE = U
NORAD_CAT_ID   = 66893
ELEMENT_SET_NO = 999
REV_AT_EPOCH   = 592
BSTAR          = .13531E-2
MEAN_MOTION_DOT = .39863E-3
MEAN_MOTION_DDOT = 0

CCSDS_OMM_VERS = 2.0
CREATION_DATE  = 
ORIGINATOR     = 

OBJECT_NAME    = STARLINK-35718
OBJECT_ID      = 2025-283S
CENTER_NAME    = EARTH
REF_FRAME      = TEME
TIME_SYSTEM    = UTC
MEAN_ELEMENT_THEORY = SGP/SGP4

EPOCH          = 2026-01-03T09:08:01.931424
MEAN_MOTION    = 15.48450877
ECCENTRICITY   = .0001046
INCLINATION    = 53.1607
RA_OF_ASC_NODE = 327.6156
ARG_OF_PERICENTER = 121.4481
MEAN_ANOMALY   = 238.6630

EPHEMERIS_TYPE = 0
CLASSIFICATION_TYPE = U
NORAD_CAT_ID   = 66894
ELEMENT_SET_NO = 999
REV_AT_EPOCH   = 584
BSTAR          = -.79503E-2
MEAN_MOTION_DOT = -.4078E-2
MEAN_MOTION_DDOT = 0

CCSDS_OMM_VERS = 2.0
CREATION_DATE  = 
ORIGINATOR     = 

OBJECT_NAME    = STARLINK-35971
OBJECT_ID      = 2025-283T
CENTER_NAME    = EARTH
REF_FRAME      = TEME
TIME_SYSTEM    = UTC
MEAN_ELEMENT_THEORY = SGP/SGP4

EPOCH          = 2026-01-03T12:00:01.999296
MEAN_MOTION    = 15.33326672
ECCENTRICITY   = .0001518
INCLINATION    = 53.1598
RA_OF_ASC_NODE = 327.2360
ARG_OF_PERICENTER = 85.2631
MEAN_ANOMALY   = 125.0311

EPHEMERIS_TYPE = 0
CLASSIFICATION_TYPE = U
NORAD_CAT_ID   = 66895
ELEMENT_SET_NO = 999
REV_AT_EPOCH   = 592
BSTAR          = -.63488E-1
MEAN_MOTION_DOT = -.1859251E-1
MEAN_MOTION_DDOT = 0

CCSDS_OMM_VERS = 2.0
CREATION_DATE  = 
ORIGINATOR     = 

OBJECT_NAME    = STARLINK-35791
OBJECT_ID      = 2025-283U
CENTER_NAME    = EARTH
REF_FRAME      = TEME
TIME_SYSTEM    = UTC
MEAN_ELEMENT_THEORY = SGP/SGP4

EPOCH          = 2026-01-03T07:34:24.894624
MEAN_MOTION    = 15.49362382
ECCENTRICITY   = .000141
INCLINATION    = 53.1597
RA_OF_ASC_NODE = 327.9203
ARG_OF_PERICENTER = 73.7079
MEAN_ANOMALY   = 286.4085

EPHEMERIS_TYPE = 0
CLASSIFICATION_TYPE = U
NORAD_CAT_ID   = 66896
ELEMENT_SET_NO = 999
REV_AT_EPOCH   = 583
BSTAR          = .23007E-2
MEAN_MOTION_DOT = .129902E-2
MEAN_MOTION_DDOT = 0

CCSDS_OMM_VERS = 2.0
CREATION_DATE  = 
ORIGINATOR     = 

OBJECT_NAME    = STARLINK-36079
OBJECT_ID      = 2025-283V
CENTER_NAME    = EARTH
REF_FRAME      = TEME
TIME_SYSTEM    = UTC
MEAN_ELEMENT_THEORY = SGP/SGP4

EPOCH          = 2026-01-03T12:00:01.999296
MEAN_MOTION    = 15.33683889
ECCENTRICITY   = .0001569
INCLINATION    = 53.1587
RA_OF_ASC_NODE = 327.2299
ARG_OF_PERICENTER = 107.1720
MEAN_ANOMALY   = 105.8034

EPHEMERIS_TYPE = 0
CLASSIFICATION_TYPE = U
NORAD_CAT_ID   = 66897
ELEMENT_SET_NO = 999
REV_AT_EPOCH   = 592
BSTAR          = -.81133E-1
MEAN_MOTION_DOT = -.2379084E-1
MEAN_MOTION_DDOT = 0

CCSDS_OMM_VERS = 2.0
CREATION_DATE  = 
ORIGINATOR     = 

OBJECT_NAME    = STARLINK-36065
OBJECT_ID      = 2025-283W
CENTER_NAME    = EARTH
REF_FRAME      = TEME
TIME_SYSTEM    = UTC
MEAN_ELEMENT_THEORY = SGP/SGP4

EPOCH          = 2026-01-03T12:00:01.999296
MEAN_MOTION    = 15.36183702
ECCENTRICITY   = .0001448
INCLINATION    = 53.1591
RA_OF_ASC_NODE = 327.1627
ARG_OF_PERICENTER = 89.1069
MEAN_ANOMALY   = 157.4704

EPHEMERIS_TYPE = 0
CLASSIFICATION_TYPE = U
NORAD_CAT_ID   = 66898
ELEMENT_SET_NO = 999
REV_AT_EPOCH   = 592
BSTAR          = -.64251E-1
MEAN_MOTION_DOT = -.207451E-1
MEAN_MOTION_DDOT = 0

CCSDS_OMM_VERS = 2.0
CREATION_DATE  = 
ORIGINATOR     = 

OBJECT_NAME    = STARLINK-36064
OBJECT_ID      = 2025-283X
CENTER_NAME    = EARTH
REF_FRAME      = TEME
TIME_SYSTEM    = UTC
MEAN_ELEMENT_THEORY = SGP/SGP4

EPOCH          = 2026-01-03T12:00:01.999296
MEAN_MOTION    = 15.36804913
ECCENTRICITY   = .0001439
INCLINATION    = 53.1589
RA_OF_ASC_NODE = 327.1462
ARG_OF_PERICENTER = 91.3383
MEAN_ANOMALY   = 163.4729

EPHEMERIS_TYPE = 0
CLASSIFICATION_TYPE = U
NORAD_CAT_ID   = 66899
ELEMENT_SET_NO = 999
REV_AT_EPOCH   = 586
BSTAR          = -.6308E-1
MEAN_MOTION_DOT = -.2042964E-1
MEAN_MOTION_DDOT = 0

CCSDS_OMM_VERS = 2.0
CREATION_DATE  = 
ORIGINATOR     = 

OBJECT_NAME    = STARLINK-36074
OBJECT_ID      = 2025-283Y
CENTER_NAME    = EARTH
REF_FRAME      = TEME
TIME_SYSTEM    = UTC
MEAN_ELEMENT_THEORY = SGP/SGP4

EPOCH          = 2026-01-03T12:00:01.999296
MEAN_MOTION    = 15.36832235
ECCENTRICITY   = .0001476
INCLINATION    = 53.1593
RA_OF_ASC_NODE = 327.1416
ARG_OF_PERICENTER = 87.1126
MEAN_ANOMALY   = 169.8864

EPHEMERIS_TYPE = 0
CLASSIFICATION_TYPE = U
NORAD_CAT_ID   = 66900
ELEMENT_SET_NO = 999
REV_AT_EPOCH   = 592
BSTAR          = -.63118E-1
MEAN_MOTION_DOT = -.204568E-1
MEAN_MOTION_DDOT = 0

CCSDS_OMM_VERS = 2.0
CREATION_DATE  = 
ORIGINATOR     = 

OBJECT_NAME    = STARLINK-36043
OBJECT_ID      = 2025-283Z
CENTER_NAME    = EARTH
REF_FRAME      = TEME
TIME_SYSTEM    = UTC
MEAN_ELEMENT_THEORY = SGP/SGP4

EPOCH          = 2026-01-03T12:00:01.999296
MEAN_MOTION    = 15.39880759
ECCENTRICITY   = .0001216
INCLINATION    = 53.1590
RA_OF_ASC_NODE = 327.0844
ARG_OF_PERICENTER = 92.5877
MEAN_ANOMALY   = 192.8711

EPHEMERIS_TYPE = 0
CLASSIFICATION_TYPE = U
NORAD_CAT_ID   = 66901
ELEMENT_SET_NO = 999
REV_AT_EPOCH   = 592
BSTAR          = -.57854E-1
MEAN_MOTION_DOT = -.206985E-1
MEAN_MOTION_DDOT = 0

